[{"OBJECT_NAME":"OSCAR 7 (AO-7)","OBJECT_ID":"1974-089B","EPOCH":"2026-04-03T14:59:32.637120","MEAN_MOTION":12.53696961,"ECCENTRICITY":0.0011867,"INCLINATION":101.9952,"RA_OF_ASC_NODE":106.0831,"ARG_OF_PERICENTER":273.4318,"MEAN_ANOMALY":205.9727,"EPHEMERIS_TYPE":0,"CLASSIFICATION_TYPE":"U","NORAD_CAT_ID":7530,"ELEMENT_SET_NO":999,"REV_AT_EPOCH":35117,"BSTAR":2.5018e-5,"MEAN_MOTION_DOT":-4.3e-7,"MEAN_MOTION_DDOT":0},{"OBJECT_NAME":"PHASE 3B (AO-10)","OBJECT_ID":"1983-058B","EPOCH":"2026-04-02T14:45:34.431840","MEAN_MOTION":2.05870088,"ECCENTRICITY":0.60380248,"INCLINATION":25.9057,"RA_OF_ASC_NODE":232.2039,"ARG_OF_PERICENTER":94.7765,"MEAN_ANOMALY":332.2066,"EPHEMERIS_TYPE":0,"CLASSIFICATION_TYPE":"U","NORAD_CAT_ID":14129,"ELEMENT_SET_NO":999,"REV_AT_EPOCH":29393,"BSTAR":0,"MEAN_MOTION_DOT":1.95e-6,"MEAN_MOTION_DDOT":0},{"OBJECT_NAME":"UOSAT 2 (UO-11)","OBJECT_ID":"1984-021B","EPOCH":"2026-04-04T04:23:56.846112","MEAN_MOTION":14.90602466,"ECCENTRICITY":0.0009166,"INCLINATION":97.7993,"RA_OF_ASC_NODE":60.6249,"ARG_OF_PERICENTER":72.6649,"MEAN_ANOMALY":287.5571,"EPHEMERIS_TYPE":0,"CLASSIFICATION_TYPE":"U","NORAD_CAT_ID":14781,"ELEMENT_SET_NO":999,"REV_AT_EPOCH":24610,"BSTAR":0.00033298974,"MEAN_MOTION_DOT":3.206e-5,"MEAN_MOTION_DDOT":0},{"OBJECT_NAME":"LUSAT (LO-19)","OBJECT_ID":"1990-005G","EPOCH":"2026-04-04T00:24:56.070432","MEAN_MOTION":14.34099458,"ECCENTRICITY":0.0012583,"INCLINATION":98.8912,"RA_OF_ASC_NODE":113.7598,"ARG_OF_PERICENTER":66.2377,"MEAN_ANOMALY":294.0125,"EPHEMERIS_TYPE":0,"CLASSIFICATION_TYPE":"U","NORAD_CAT_ID":20442,"ELEMENT_SET_NO":999,"REV_AT_EPOCH":89176,"BSTAR":0.00010721215,"MEAN_MOTION_DOT":2.53e-6,"MEAN_MOTION_DDOT":0},{"OBJECT_NAME":"EYESAT A (AO-27)","OBJECT_ID":"1993-061C","EPOCH":"2026-04-04T03:50:00.404160","MEAN_MOTION":14.30922179,"ECCENTRICITY":0.00075927,"INCLINATION":98.6932,"RA_OF_ASC_NODE":161.5826,"ARG_OF_PERICENTER":323.8735,"MEAN_ANOMALY":36.1933,"EPHEMERIS_TYPE":0,"CLASSIFICATION_TYPE":"U","NORAD_CAT_ID":22825,"ELEMENT_SET_NO":999,"REV_AT_EPOCH":69641,"BSTAR":9.2914381e-5,"MEAN_MOTION_DOT":1.99e-6,"MEAN_MOTION_DDOT":0},{"OBJECT_NAME":"ITAMSAT (IO-26)","OBJECT_ID":"1993-061D","EPOCH":"2026-04-04T03:52:02.577216","MEAN_MOTION":14.31347129,"ECCENTRICITY":0.00078766,"INCLINATION":98.6881,"RA_OF_ASC_NODE":161.4941,"ARG_OF_PERICENTER":305.2501,"MEAN_ANOMALY":54.7944,"EPHEMERIS_TYPE":0,"CLASSIFICATION_TYPE":"U","NORAD_CAT_ID":22826,"ELEMENT_SET_NO":999,"REV_AT_EPOCH":69672,"BSTAR":9.9637105e-5,"MEAN_MOTION_DOT":2.19e-6,"MEAN_MOTION_DDOT":0},{"OBJECT_NAME":"RADIO ROSTO (RS15)","OBJECT_ID":"1994-085A","EPOCH":"2026-04-04T05:42:41.327712","MEAN_MOTION":11.27583865,"ECCENTRICITY":0.01536452,"INCLINATION":64.8166,"RA_OF_ASC_NODE":62.8093,"ARG_OF_PERICENTER":17.2967,"MEAN_ANOMALY":343.3112,"EPHEMERIS_TYPE":0,"CLASSIFICATION_TYPE":"U","NORAD_CAT_ID":23439,"ELEMENT_SET_NO":999,"REV_AT_EPOCH":28756,"BSTAR":-0.00016219575,"MEAN_MOTION_DOT":-4.8e-7,"MEAN_MOTION_DDOT":0},{"OBJECT_NAME":"JAS-2 (FO-29)","OBJECT_ID":"1996-046B","EPOCH":"2026-04-04T03:40:53.397984","MEAN_MOTION":13.53270501,"ECCENTRICITY":0.03489017,"INCLINATION":98.5336,"RA_OF_ASC_NODE":313.1239,"ARG_OF_PERICENTER":288.6176,"MEAN_ANOMALY":67.7379,"EPHEMERIS_TYPE":0,"CLASSIFICATION_TYPE":"U","NORAD_CAT_ID":24278,"ELEMENT_SET_NO":999,"REV_AT_EPOCH":46315,"BSTAR":5.6847293e-5,"MEAN_MOTION_DOT":1.8e-7,"MEAN_MOTION_DDOT":0},{"OBJECT_NAME":"TECHSAT 1B (GO-32)","OBJECT_ID":"1998-043D","EPOCH":"2026-04-04T05:43:36.987456","MEAN_MOTION":14.2441347,"ECCENTRICITY":0.00023174,"INCLINATION":99.0053,"RA_OF_ASC_NODE":85.142,"ARG_OF_PERICENTER":78.4186,"MEAN_ANOMALY":281.7252,"EPHEMERIS_TYPE":0,"CLASSIFICATION_TYPE":"U","NORAD_CAT_ID":25397,"ELEMENT_SET_NO":999,"REV_AT_EPOCH":44080,"BSTAR":7.6157415e-5,"MEAN_MOTION_DOT":1.3e-6,"MEAN_MOTION_DDOT":0},{"OBJECT_NAME":"ISS (ZARYA)","OBJECT_ID":"1998-067A","EPOCH":"2026-04-04T01:39:43.591392","MEAN_MOTION":15.4875813,"ECCENTRICITY":0.00062512,"INCLINATION":51.6326,"RA_OF_ASC_NODE":306.884,"ARG_OF_PERICENTER":269.7954,"MEAN_ANOMALY":90.2318,"EPHEMERIS_TYPE":0,"CLASSIFICATION_TYPE":"U","NORAD_CAT_ID":25544,"ELEMENT_SET_NO":999,"REV_AT_EPOCH":56026,"BSTAR":0.00022464475,"MEAN_MOTION_DOT":0.00011847,"MEAN_MOTION_DDOT":0},{"OBJECT_NAME":"PCSAT (NO-44)","OBJECT_ID":"2001-043C","EPOCH":"2026-04-04T06:17:28.195296","MEAN_MOTION":14.31926329,"ECCENTRICITY":0.00068277,"INCLINATION":67.0497,"RA_OF_ASC_NODE":75.471,"ARG_OF_PERICENTER":264.5436,"MEAN_ANOMALY":95.4887,"EPHEMERIS_TYPE":0,"CLASSIFICATION_TYPE":"U","NORAD_CAT_ID":26931,"ELEMENT_SET_NO":999,"REV_AT_EPOCH":27986,"BSTAR":0.00014192017,"MEAN_MOTION_DOT":2.98e-6,"MEAN_MOTION_DDOT":0},{"OBJECT_NAME":"SAUDISAT 1C (SO-50)","OBJECT_ID":"2002-058C","EPOCH":"2026-04-04T04:16:14.559456","MEAN_MOTION":14.8288596,"ECCENTRICITY":0.0075469,"INCLINATION":64.5554,"RA_OF_ASC_NODE":357.9396,"ARG_OF_PERICENTER":275.9713,"MEAN_ANOMALY":83.2796,"EPHEMERIS_TYPE":0,"CLASSIFICATION_TYPE":"U","NORAD_CAT_ID":27607,"ELEMENT_SET_NO":999,"REV_AT_EPOCH":25348,"BSTAR":0.00030473227,"MEAN_MOTION_DOT":2.448e-5,"MEAN_MOTION_DDOT":0},{"OBJECT_NAME":"CUTE-1 (CO-55)","OBJECT_ID":"2003-031E","EPOCH":"2026-04-03T12:04:07.752864","MEAN_MOTION":14.24288225,"ECCENTRICITY":0.00103879,"INCLINATION":98.677,"RA_OF_ASC_NODE":102.9944,"ARG_OF_PERICENTER":47.9217,"MEAN_ANOMALY":312.2844,"EPHEMERIS_TYPE":0,"CLASSIFICATION_TYPE":"U","NORAD_CAT_ID":27844,"ELEMENT_SET_NO":999,"REV_AT_EPOCH":18104,"BSTAR":0.00026455985,"MEAN_MOTION_DOT":5.67e-6,"MEAN_MOTION_DDOT":0},{"OBJECT_NAME":"CUBESAT XI-IV (CO-57)","OBJECT_ID":"2003-031J","EPOCH":"2026-04-03T22:42:16.899552","MEAN_MOTION":14.23580366,"ECCENTRICITY":0.0010511,"INCLINATION":98.6802,"RA_OF_ASC_NODE":103.2044,"ARG_OF_PERICENTER":63.1709,"MEAN_ANOMALY":297.0543,"EPHEMERIS_TYPE":0,"CLASSIFICATION_TYPE":"U","NORAD_CAT_ID":27848,"ELEMENT_SET_NO":999,"REV_AT_EPOCH":18081,"BSTAR":0.00022289284,"MEAN_MOTION_DOT":4.64e-6,"MEAN_MOTION_DDOT":0},{"OBJECT_NAME":"MOZHAETS 4 (RS22)","OBJECT_ID":"2003-042A","EPOCH":"2026-04-04T06:40:41.748672","MEAN_MOTION":14.7332878,"ECCENTRICITY":0.00121041,"INCLINATION":98.3454,"RA_OF_ASC_NODE":276.5553,"ARG_OF_PERICENTER":138.8169,"MEAN_ANOMALY":34.0969,"EPHEMERIS_TYPE":0,"CLASSIFICATION_TYPE":"U","NORAD_CAT_ID":27939,"ELEMENT_SET_NO":999,"REV_AT_EPOCH":20466,"BSTAR":0.00020976145,"MEAN_MOTION_DOT":1.305e-5,"MEAN_MOTION_DDOT":0},{"OBJECT_NAME":"CUBESAT XI-V","OBJECT_ID":"2005-043F","EPOCH":"2026-04-03T22:16:53.825664","MEAN_MOTION":14.72431745,"ECCENTRICITY":0.00153231,"INCLINATION":98.2882,"RA_OF_ASC_NODE":248.038,"ARG_OF_PERICENTER":82.7657,"MEAN_ANOMALY":277.5291,"EPHEMERIS_TYPE":0,"CLASSIFICATION_TYPE":"U","NORAD_CAT_ID":28895,"ELEMENT_SET_NO":999,"REV_AT_EPOCH":9082,"BSTAR":0.00054043169,"MEAN_MOTION_DOT":3.38e-5,"MEAN_MOTION_DDOT":0}]
