OSCAR 7 (AO-7)          
1 07530U 74089B   26093.62468330 -.00000043  00000+0  25018-4 0  9992
2 07530 101.9952 106.0831 0011867 273.4318 205.9727 12.53696961351171
PHASE 3B (AO-10)        
1 14129U 83058B   26092.61498185  .00000195  00000+0  00000+0 0  9995
2 14129  25.9057 232.2039 6038024  94.7765 332.2066  2.05870088293935
UOSAT 2 (UO-11)         
1 14781U 84021B   26094.18329683  .00003206  00000+0  33299-3 0  9996
2 14781  97.7993  60.6249 0009166  72.6649 287.5571 14.90602466246106
LUSAT (LO-19)           
1 20442U 90005G   26094.01731563  .00000253  00000+0  10721-3 0  9996
2 20442  98.8912 113.7598 0012583  66.2377 294.0125 14.34099458891766
EYESAT A (AO-27)        
1 22825U 93061C   26094.15972690  .00000199  00000+0  92914-4 0  9995
2 22825  98.6932 161.5826 0007592 323.8735  36.1933 14.30922179696410
ITAMSAT (IO-26)         
1 22826U 93061D   26094.16114094  .00000219  00000+0  99637-4 0  9995
2 22826  98.6881 161.4941 0007876 305.2501  54.7944 14.31347129696720
RADIO ROSTO (RS15)      
1 23439U 94085A   26094.23797833 -.00000048  00000+0 -16220-3 0  9997
2 23439  64.8166  62.8093 0153645  17.2967 343.3112 11.27583865287569
JAS-2 (FO-29)           
1 24278U 96046B   26094.15339581  .00000018  00000+0  56847-4 0  9996
2 24278  98.5336 313.1239 0348901 288.6176  67.7379 13.53270501463159
TECHSAT 1B (GO-32)      
1 25397U 98043D   26094.23862254  .00000130  00000+0  76157-4 0  9996
2 25397  99.0053  85.1420 0002317  78.4186 281.7252 14.24413470440804
ISS (ZARYA)             
1 25544U 98067A   26094.06925453  .00011847  00000+0  22464-3 0  9996
2 25544  51.6326 306.8840 0006251 269.7954  90.2318 15.48758130560264
PCSAT (NO-44)           
1 26931U 01043C   26094.26213189  .00000298  00000+0  14192-3 0  9990
2 26931  67.0497  75.4710 0006827 264.5436  95.4887 14.31926329279866
SAUDISAT 1C (SO-50)     
1 27607U 02058C   26094.17794629  .00002448  00000+0  30473-3 0  9990
2 27607  64.5554 357.9396 0075469 275.9713  83.2796 14.82885960253488
CUTE-1 (CO-55)          
1 27844U 03031E   26093.50286751  .00000567  00000+0  26456-3 0  9999
2 27844  98.6770 102.9944 0010387  47.9217 312.2844 14.24288225181048
CUBESAT XI-IV (CO-57)   
1 27848U 03031J   26093.94602893  .00000464  00000+0  22289-3 0  9996
2 27848  98.6802 103.2044 0010511  63.1709 297.0543 14.23580366180818
MOZHAETS 4 (RS22)       
1 27939U 03042A   26094.27826098  .00001305  00000+0  20976-3 0  9997
2 27939  98.3454 276.5553 0012104 138.8169  34.0969 14.73328780204664
CUBESAT XI-V            
1 28895U 05043F   26093.92840076  .00003380  00000+0  54043-3 0  9992
2 28895  98.2882 248.0380 0015323  82.7657 277.5291 14.72431745 90825
